CUTE-1 (CO-55)          
1 27844U 03031E   26130.52442412  .00000213  00000+0  11124-3 0  9995
2 27844  98.6748 139.5562 0008405 298.6352  61.3981 14.24311987186319
CUBESAT XI-IV (CO-57)   
1 27848U 03031J   26130.49403878  .00000172  00000+0  94879-4 0  9991
2 27848  98.6781 139.2691 0008585 319.4878  40.5660 14.23600267186015
CUBESAT XI-V            
1 28895U 05043F   26130.41921488  .00000913  00000+0  15191-3 0  9995
2 28895  98.2944 285.2597 0013294 329.8467  30.1973 14.72531014 96192
CUTE-1.7+APD II (CO-65) 
1 32785U 08021C   26130.45818640  .00002573  00000+0  16642-3 0  9992
2 32785  97.8263 111.1086 0009918 147.2361 212.9484 15.09092520979504
CANX-2                  
1 32790U 08021H   26130.40265159  .00002374  00000+0  17010-3 0  9993
2 32790  97.8630 109.4604 0010875 161.8568 198.3048 15.05348741979125
SEEDS II (CO-66)        
1 32791U 08021J   26130.51498933  .00011518  00000+0  38149-3 0  9990
2 32791  97.7530 126.6561 0005077  89.2514 270.9308 15.31463799981522
SWISSCUBE               
1 35932U 09051B   26130.26440536  .00000677  00000+0  14363-3 0  9998
2 35932  98.4060  37.4904 0006394 342.8846  17.2138 14.62406862883612
BEESAT-1                
1 35933U 09051C   26130.52809007  .00000559  00000+0  12214-3 0  9992
2 35933  98.3987  37.4724 0005225 359.7288   0.3908 14.61657599883688
ITUPSAT1                
1 35935U 09051E   26130.21202151  .00000517  00000+0  11693-3 0  9991
2 35935  98.4072  36.3832 0007659   7.0853 353.0453 14.60382222883194
TISAT 1                 
1 36799U 10035E   26130.33841874  .00012329  00000+0  42360-3 0  9997
2 36799  98.0690  73.5814 0003753  57.9803 302.1800 15.30273904861919
AEROCUBE 4.5A           
1 38767U 12048K   26130.42092675  .00111174  00000+0  65856-3 0  9990
2 38767  64.6295 162.8772 0019574 217.1445 142.8355 15.77238274366670
STRAND-1                
1 39090U 13009E   26130.45996088  .00000191  00000+0  78543-4 0  9996
2 39090  98.3917 311.6247 0008362 352.3020   7.8038 14.37140596691640
BRITE-AUSTRIA           
1 39091U 13009F   26130.45664969  .00000114  00000+0  53506-4 0  9994
2 39091  98.3988 310.8281 0010101   0.0217   0.0969 14.36526753691636
NEE-01 PEGASO           
1 39151U 13018B   26130.34628774  .00002213  00000+0  21600-3 0  9994
2 39151  98.1173 273.2628 0011214 290.5828  69.4187 14.93474540705056
POPACS 2                
1 39269U 13055E   26130.11906980  .00011649  00000+0  19985-3 0  9994
2 39269  80.9922 187.7417 0419631 316.2427  40.6221 14.90354447657548
POPACS 3                
1 39270U 13055F   26130.38178605  .00011375  00000+0  27239-3 0  9997
2 39270  81.0005 270.1476 0554985 184.9611 174.5957 14.55190036633059
ZACUBE-1 (TSHEPISOSAT)  
1 39417U 13066B   26130.47673855  .00003133  00000+0  24647-3 0  9992
2 39417  97.8121  92.6096 0042233  20.0990 340.1885 15.00893978675074
WNISAT-1                
1 39423U 13066H   26130.39805735  .00000335  00000+0  69895-4 0  9990
2 39423  97.7156 282.2470 0162891 351.4447   8.3983 14.58015890661227
TRITON-1                
1 39427U 13066M   26130.54379704  .00001135  00000+0  14176-3 0  9993
2 39427  97.8261  41.2082 0090368 358.1220   1.9641 14.81536851668513
GOMX-1                  
1 39430U 13066Q   26130.52782594  .00001280  00000+0  19889-3 0  9997
2 39430  97.6513 333.3647 0128266 197.8565 161.8114 14.69311401664386
CUBEBUG-2 (LO-74)       
1 39440U 13066AA  26130.41281770  .00002554  00000+0  24043-3 0  9999
2 39440  97.8887  79.2468 0058724 151.0910 209.3584 14.93481295671357
NEE-02 KRYSAOR          
1 39441U 13066AB  26130.37989997  .00001053  00000+0  12101-3 0  9996
2 39441  97.8878  69.8734 0065831 192.4256 167.5340 14.86477858670589
FUNCUBE-1 (AO-73)       
1 39444U 13066AE  26130.46420095  .00005799  00000+0  36577-3 0  9992
2 39444  97.8258 101.1423 0035723 334.9133  25.0358 15.08996348673971
UWE-3                   
1 39446U 13066AG  26130.37977211  .00002188  00000+0  19192-3 0  9994
2 39446  97.8682  86.2160 0051084  85.6808 275.0248 14.96709697671925
BRITE-CA1 (TORONTO)     
1 40020U 14033L   26130.32809250  .00000532  00000+0  87440-4 0  9994
2 40020  97.9684 259.9671 0079472  38.9806 321.7094 14.72624635636644
DUCHIFAT-1              
1 40021U 14033M   26130.13449356  .00053902  00000+0  71643-3 0  9997
2 40021  98.0512 184.1726 0005686 194.5902 165.5189 15.58020108649811
NANOSATC-BR1            
1 40024U 14033Q   26130.03141204  .00011355  00000+0  39072-3 0  9996
2 40024  98.0758 159.0728 0002165 341.9128  18.2034 15.30254796648146
QB50P1                  
1 40025U 14033R   26130.50987584  .00005824  00000+0  29268-3 0  9998
2 40025  98.0986 139.0315 0008611   7.1794 352.9559 15.17673094647311
QB50P2                  
1 40032U 14033Y   26130.51626846  .00004715  00000+0  25878-3 0  9999
2 40032  98.0760 125.0689 0006002 313.3795  46.6935 15.14676297646963
PERSEUS-M2              
1 40037U 14033AD  26130.52621722  .00001078  00000+0  10300-3 0  9996
2 40037  97.9937  80.3095 0013102  66.7724 293.4875 14.95389897645156
